NORAD_CAT_ID,OBJECT_NAME,OBJECT_TYPE,EPOCH,MEAN_MOTION,ECCENTRICITY,INCLINATION,RA_OF_ASC_NODE,ARG_OF_PERICENTER,MEAN_ANOMALY,BSTAR,MEAN_MOTION_DOT,MEAN_MOTION_DDOT,TLE_LINE0,TLE_LINE1,TLE_LINE2,SEMIMAJOR_AXIS,PERIOD,APOGEE,PERIGEE,DECAYED
56792.0,STARLINK-6046,PAYLOAD,2024-05-08 11:13:03,14.98330102,0.0002762,70.0013,234.476,268.4908,91.5934,4.8943e-06,-3.5e-07,0.0,0 STARLINK-6046,1 56792U 23078AB  24129.46740171 -.00000035  00000-0  48943-5 0  9999,2 56792  70.0013 234.4760 0002762 268.4908  91.5934 14.98330102 52540,6950.193,96.107,573.977,570.138,0.0
56792.0,STARLINK-6046,PAYLOAD,2024-05-08 14:25:19,14.98331869,0.0002795,70.0006,234.1389,265.2055,94.8785,-3.8816e-05,-5.56e-06,0.0,0 STARLINK-6046,1 56792U 23078AB  24129.60092128 -.00000556  00000-0 -38816-4 0  9993,2 56792  70.0006 234.1389 0002795 265.2055  94.8785 14.98331869 52305,6950.187,96.107,573.995,570.11,0.0
56792.0,STARLINK-6046,PAYLOAD,2024-05-08 16:01:27,14.98332167,0.0002778,70.0007,233.971,265.4464,94.6378,-3.2677e-05,-4.83e-06,0.0,0 STARLINK-6046,1 56792U 23078AB  24129.66768086 -.00000483  00000-0 -32677-4 0  9990,2 56792  70.0007 233.9710 0002778 265.4464  94.6378 14.98332167 52317,6950.186,96.107,573.982,570.12,0.0
56792.0,STARLINK-6046,PAYLOAD,2024-05-09 00:02:07,14.98356246,0.0002881,70.0011,233.1294,271.8318,88.2512,-0.00040707,-4.95e-05,0.0,0 STARLINK-6046,1 56792U 23078AB  24130.00147041 -.00004950  00000-0 -40707-3 0  9997,2 56792  70.0011 233.1294 0002881 271.8318  88.2512 14.98356246 52622,6950.112,96.105,573.979,569.974,0.0
56792.0,STARLINK-6046,PAYLOAD,2024-05-09 12:51:11,14.98337333,0.0002902,70.0004,231.782,268.1909,91.8918,0.00019221,2.202e-05,0.0,0 STARLINK-6046,1 56792U 23078AB  24130.53555309  .00002202  00000-0  19221-3 0  9998,2 56792  70.0004 231.7820 0002902 268.1909  91.8918 14.98337333 52707,6950.17,96.107,574.052,570.018,0.0
56792.0,STARLINK-6046,PAYLOAD,2024-05-09 14:27:19,14.98337762,0.0002901,70.0004,231.6137,268.1767,91.906,0.00019723,2.262e-05,0.0,0 STARLINK-6046,1 56792U 23078AB  24130.60231281  .00002262  00000-0  19723-3 0  9999,2 56792  70.0004 231.6137 0002901 268.1767  91.9060 14.98337762 52455,6950.169,96.107,574.05,570.018,0.0
56792.0,STARLINK-6046,PAYLOAD,2024-05-09 16:03:27,14.98339581,0.0002887,70.0005,231.4454,268.6015,91.4814,0.00021946,2.527e-05,0.0,0 STARLINK-6046,1 56792U 23078AB  24130.66907134  .00002527  00000-0  21946-3 0  9996,2 56792  70.0005 231.4454 0002887 268.6015  91.4814 14.98339581 52464,6950.163,96.106,574.035,570.022,0.0
56792.0,STARLINK-6046,PAYLOAD,2024-05-10 00:04:09,14.98305263,0.000317,70.0002,230.6037,256.1807,103.9,0.00084038,9.942e-05,0.0,0 STARLINK-6046,1 56792U 23078AB  24131.00288612  .00009942  00000-0  84038-3 0  9997,2 56792  70.0002 230.6037 0003170 256.1807 103.9000 14.98305263 52776,6950.269,96.109,574.338,569.931,0.0
56792.0,STARLINK-6046,PAYLOAD,2024-05-10 12:53:13,14.98325617,0.0002852,70.0017,229.2569,270.9436,89.1396,1.3841e-06,-7.6e-07,0.0,0 STARLINK-6046,1 56792U 23078AB  24131.53696380 -.00000076  00000-0  13841-5 0  9996,2 56792  70.0017 229.2569 0002852 270.9436  89.1396 14.98325617 52851,6950.206,96.107,574.054,570.089,0.0
56792.0,STARLINK-6046,PAYLOAD,2024-05-10 14:29:21,14.98323236,0.0002475,70.0023,229.0881,266.6239,93.4637,2.9098e-05,2.54e-06,0.0,0 STARLINK-6046,1 56792U 23078AB  24131.60372571  .00000254  00000-0  29098-4 0  9994,2 56792  70.0023 229.0881 0002475 266.6239  93.4637 14.98323236 52601,6950.214,96.107,573.799,570.359,0.0
56792.0,STARLINK-6046,PAYLOAD,2024-05-10 16:05:29,14.98330289,0.000284,70.0004,228.9205,270.0422,90.0412,0.0001277,1.431e-05,0.0,0 STARLINK-6046,1 56792U 23078AB  24131.67048386  .00001431  00000-0  12770-3 0  9991,2 56792  70.0004 228.9205 0002840 270.0422  90.0412 14.98330289 52618,6950.192,96.107,574.031,570.083,0.0
56792.0,STARLINK-6046,PAYLOAD,2024-05-11 12:55:10,14.98414807,0.0003168,70.0014,226.7331,273.4425,86.6371,0.0018939,0.00022628,0.0,0 STARLINK-6046,1 56792U 23078AB  24132.53831338  .00022628  00000-0  18939-2 0  9997,2 56792  70.0014 226.7331 0003168 273.4425  86.6371 14.98414807 53007,6949.931,96.102,573.997,569.594,0.0
56792.0,STARLINK-6046,PAYLOAD,2024-05-11 16:07:28,14.98342698,0.0002774,70.0017,226.3968,274.679,85.4052,-0.00010045,-1.292e-05,0.0,0 STARLINK-6046,1 56792U 23078AB  24132.67185722 -.00001292  00000-0 -10045-3 0  9998,2 56792  70.0017 226.3968 0002774 274.6790  85.4052 14.98342698 53025,6950.154,96.106,573.947,570.091,0.0
56792.0,STARLINK-6046,PAYLOAD,2024-05-12 00:08:11,14.98281008,0.000199,70.0046,225.5544,294.5772,65.518,-0.001511,-0.00018052,0.0,0 STARLINK-6046,1 56792U 23078AB  24133.00568834 -.00018052  00000-0 -15110-2 0  9994,2 56792  70.0046 225.5544 0001990 294.5772  65.5180 14.98281008 53071,6950.344,96.11,573.593,570.826,0.0
56792.0,STARLINK-6046,PAYLOAD,2024-05-12 12:57:18,14.98169497,0.0003092,70.0013,224.2069,276.7733,83.3074,-2.9892e-06,-1.28e-06,0.0,0 STARLINK-6046,1 56792U 23078AB  24133.53980124 -.00000128  00000-0 -29892-5 0  9992,2 56792  70.0013 224.2069 0003092 276.7733  83.3074 14.98169497 53153,6950.689,96.117,574.703,570.405,0.0
56792.0,STARLINK-6046,PAYLOAD,2024-05-12 14:33:27,14.98161738,0.0003059,70.0012,224.0385,277.9238,82.1573,0.0018417,0.00021855,0.0,0 STARLINK-6046,1 56792U 23078AB  24133.60657141  .00021855  00000-0  18417-2 0  9996,2 56792  70.0012 224.0385 0003059 277.9238  82.1573 14.98161738 52900,6950.713,96.118,574.704,570.452,0.0
56792.0,STARLINK-6046,PAYLOAD,2024-05-12 16:09:36,14.98165053,0.0003062,70.0011,223.8703,278.1109,81.9703,0.0018129,0.00021513,0.0,0 STARLINK-6046,1 56792U 23078AB  24133.67333898  .00021513  00000-0  18129-2 0  9994,2 56792  70.0011 223.8703 0003062 278.1109  81.9703 14.98165053 52911,6950.703,96.118,574.696,570.44,0.0
56792.0,STARLINK-6046,PAYLOAD,2024-05-13 04:58:42,14.98304908,0.0002979,70.0008,222.5237,297.6622,62.4234,0.002475,0.00029544,0.0,0 STARLINK-6046,1 56792U 23078AB  24134.20743663  .00029544  00000-0  24750-2 0  9998,2 56792  70.0008 222.5237 0002979 297.6622  62.4234 14.98304908 53252,6950.27,96.109,574.206,570.065,0.0
56792.0,STARLINK-6046,PAYLOAD,2024-05-13 11:23:14,14.98370229,0.0003074,70.0005,221.8506,286.4872,73.595,0.0071461,0.00086322,0.0,0 STARLINK-6046,1 56792U 23078AB  24134.47447184  .00086322  00000-0  71461-2 0  9994,2 56792  70.0005 221.8506 0003074 286.4872  73.5950 14.98370229 53291,6950.068,96.104,574.07,569.797,0.0
56792.0,STARLINK-6046,PAYLOAD,2024-05-14 05:00:41,14.98389474,0.0003212,70.0016,220.001,297.8084,62.2749,0.0029335,0.0003514,0.0,0 STARLINK-6046,1 56792U 23078AB  24135.20881661  .00035140  00000-0  29335-2 0  9993,2 56792  70.0016 220.0010 0003212 297.8084  62.2749 14.98389474 53405,6950.009,96.103,574.106,569.642,0.0
56792.0,STARLINK-6046,PAYLOAD,2024-05-14 11:25:13,14.98374842,0.0002531,70.0018,219.327,280.5851,79.5023,0.00088108,0.00010448,0.0,0 STARLINK-6046,1 56792U 23078AB  24135.47584794  .00010448  00000-0  88108-3 0  9997,2 56792  70.0018 219.3270 0002531 280.5851  79.5023 14.98374842 53443,6950.054,96.104,573.678,570.16,0.0
56792.0,STARLINK-6046,PAYLOAD,2024-05-14 22:38:08,14.98380084,0.0002434,70.003,218.1481,294.4511,65.6394,0.00088237,0.00010464,0.0,0 STARLINK-6046,1 56792U 23078AB  24135.94315870  .00010464  00000-0  88237-3 0  9997,2 56792  70.0030 218.1481 0002434 294.4511  65.6394 14.98380084 53258,6950.038,96.104,573.595,570.211,0.0
56792.0,STARLINK-6046,PAYLOAD,2024-05-15 05:02:40,14.98380721,0.000316,70.0008,217.4748,290.7383,69.3437,0.00066617,7.875e-05,0.0,0 STARLINK-6046,1 56792U 23078AB  24136.21018699  .00007875  00000-0  66617-3 0  9997,2 56792  70.0008 217.4748 0003160 290.7383  69.3437 14.98380721 53554,6950.036,96.104,574.097,569.705,0.0
56792.0,STARLINK-6046,PAYLOAD,2024-05-15 14:39:27,14.9838497,0.0003174,70.001,216.4645,291.7808,68.3013,0.00056916,6.714e-05,0.0,0 STARLINK-6046,1 56792U 23078AB  24136.61073396  .00006714  00000-0  56916-3 0  9998,2 56792  70.0010 216.4645 0003174 291.7808  68.3013 14.98384970 53357,6950.023,96.103,574.094,569.682,0.0
56792.0,STARLINK-6046,PAYLOAD,2024-05-15 22:40:07,14.98376607,0.0003149,70.0023,215.622,288.4539,71.6277,0.0002126,2.448e-05,0.0,0 STARLINK-6046,1 56792U 23078AB  24136.94452601  .00002448  00000-0  21260-3 0  9998,2 56792  70.0023 215.6220 0003149 288.4539  71.6277 14.98376607 53400,6950.049,96.104,574.102,569.725,0.0
56792.0,STARLINK-6046,PAYLOAD,2024-05-16 11:29:10,14.98379696,0.0003156,70.0004,214.2754,286.9845,73.0969,0.0003465,4.049e-05,0.0,0 STARLINK-6046,1 56792U 23078AB  24137.47859111  .00004049  00000-0  34650-3 0  9990,2 56792  70.0004 214.2754 0003156 286.9845  73.0969 14.98379696 53480,6950.039,96.104,574.098,569.711,0.0
56792.0,STARLINK-6046,PAYLOAD,2024-05-16 14:41:25,14.98385521,0.0002982,70.0013,213.9386,288.9777,71.1058,0.00046676,5.489e-05,0.0,0 STARLINK-6046,1 56792U 23078AB  24137.61210546  .00005489  00000-0  46676-3 0  9999,2 56792  70.0013 213.9386 0002982 288.9777  71.1058 14.98385521 53504,6950.021,96.103,573.959,569.814,0.0
56792.0,STARLINK-6046,PAYLOAD,2024-05-17 05:06:38,14.98358012,0.0002266,70.0021,212.4239,292.2898,67.8021,-0.00013194,-1.668e-05,0.0,0 STARLINK-6046,1 56792U 23078AB  24138.21294415 -.00001668  00000-0 -13194-3 0  9999,2 56792  70.0021 212.4239 0002266 292.2898  67.8021 14.98358012 53856,6950.106,96.105,573.546,570.396,0.0
56792.0,STARLINK-6046,PAYLOAD,2024-05-17 11:31:10,14.98348507,0.0002723,70.0015,211.75,284.7608,75.3249,-0.00029475,-3.61e-05,0.0,0 STARLINK-6046,1 56792U 23078AB  24138.47998360 -.00003610  00000-0 -29475-3 0  9995,2 56792  70.0015 211.7500 0002723 284.7608  75.3249 14.98348507 53893,6950.136,96.106,573.893,570.108,0.0
56792.0,STARLINK-6046,PAYLOAD,2024-05-17 22:44:06,14.98341,0.0003058,70.0015,210.5728,285.2218,74.8603,-0.00028206,-3.458e-05,0.0,0 STARLINK-6046,1 56792U 23078AB  24138.94730276 -.00003458  00000-0 -28206-3 0  9998,2 56792  70.0015 210.5728 0003058 285.2218  74.8603 14.98341000 53706,6950.159,96.106,574.149,569.899,0.0
